[{"OBJECT_NAME":"QIANFAN-16","OBJECT_ID":"2024-140R","EPOCH":"2026-03-09T21:51:43.552800","MEAN_MOTION":13.50998466,"ECCENTRICITY":0.00136929,"INCLINATION":88.971,"RA_OF_ASC_NODE":290.3718,"ARG_OF_PERICENTER":326.9882,"MEAN_ANOMALY":33.0413,"EPHEMERIS_TYPE":0,"CLASSIFICATION_TYPE":"U","NORAD_CAT_ID":60394,"ELEMENT_SET_NO":999,"REV_AT_EPOCH":7894,"BSTAR":0.00010191129,"MEAN_MOTION_DOT":7.8e-7,"MEAN_MOTION_DDOT":0},{"OBJECT_NAME":"DELTA 1 DEB","OBJECT_ID":"1975-052MH","EPOCH":"2026-03-08T05:29:01.444416","MEAN_MOTION":13.54683378,"ECCENTRICITY":0.01815299,"INCLINATION":100.3612,"RA_OF_ASC_NODE":171.0785,"ARG_OF_PERICENTER":1.554,"MEAN_ANOMALY":358.6123,"EPHEMERIS_TYPE":0,"CLASSIFICATION_TYPE":"U","NORAD_CAT_ID":42648,"ELEMENT_SET_NO":999,"REV_AT_EPOCH":59874,"BSTAR":0.0089793502,"MEAN_MOTION_DOT":6.791e-5,"MEAN_MOTION_DDOT":0}]
